AAU-CUBESAT
1 27846U 03031G   21332.44421570  .00000082  00000-0  56523-4 0  9997
2 27846  98.6858 336.8791 0008451 301.7178  58.3176 14.22358296955488